{
  "type": "FeatureCollection",
  "features": [
    {
      "type": "Feature",
      "properties": {
        "norad_id": 39766,
        "name": "ALOS-2",
        "group": "resource",
        "lat": -3.144033643294381,
        "lon": 76.76027580820136,
        "alt_km": 634.7465061694984,
        "timestamp": "2025-12-07T09:35:09.449061+00:00",
        "meta_object_name": "ALOS-2",
        "meta_object_id": "2014-029A",
        "meta_epoch": "2025-12-06T22:14:16.221696",
        "meta_mean_motion": 14.79455384,
        "meta_eccentricity": 0.00014349,
        "meta_inclination": 97.9234,
        "meta_ra_of_asc_node": 75.8559,
        "meta_arg_of_pericenter": 105.3258,
        "meta_mean_anomaly": 254.8112,
        "meta_ephemeris_type": 0,
        "meta_classification_type": "U",
        "meta_norad_cat_id": 39766,
        "meta_element_set_no": 999,
        "meta_rev_at_epoch": 62315,
        "meta_bstar": 0.000430739,
        "meta_mean_motion_dot": 3.165e-05,
        "meta_mean_motion_ddot": 0,
        "tle_line1": "1 39766U 14029A   25340.92657664  .00003165  00000+0  43074-3 0  9991",
        "tle_line2": "2 39766  97.9234  75.8559 0001434 105.3258 254.8112 14.79455384623152"
      },
      "geometry": {
        "type": "Point",
        "coordinates": [
          76.76027580820136,
          -3.144033643294381
        ]
      }
    },
    {
      "type": "Feature",
      "properties": {
        "norad_id": 40010,
        "name": "KAZEOSAT 2",
        "group": "resource",
        "lat": 21.891725232523918,
        "lon": 9.04520801844351,
        "alt_km": 611.0335847456008,
        "timestamp": "2025-12-07T09:35:09.449071+00:00",
        "meta_object_name": "KAZEOSAT 2",
        "meta_object_id": "2014-033A",
        "meta_epoch": "2025-12-06T19:56:28.162464",
        "meta_mean_motion": 14.85153465,
        "meta_eccentricity": 0.00074041,
        "meta_inclination": 97.5516,
        "meta_ra_of_asc_node": 185.4505,
        "meta_arg_of_pericenter": 228.4499,
        "meta_mean_anomaly": 131.6082,
        "meta_ephemeris_type": 0,
        "meta_classification_type": "U",
        "meta_norad_cat_id": 40010,
        "meta_element_set_no": 999,
        "meta_rev_at_epoch": 62040,
        "meta_bstar": 0.00017494673,
        "meta_mean_motion_dot": 1.448e-05,
        "meta_mean_motion_ddot": 0,
        "tle_line1": "1 40010U 14033A   25340.83088151  .00001448  00000+0  17495-3 0  9999",
        "tle_line2": "2 40010  97.5516 185.4505 0007404 228.4499 131.6082 14.85153465620406"
      },
      "geometry": {
        "type": "Point",
        "coordinates": [
          9.04520801844351,
          21.891725232523918
        ]
      }
    },
    {
      "type": "Feature",
      "properties": {
        "norad_id": 40011,
        "name": "HODOYOSHI-4",
        "group": "resource",
        "lat": -21.231075088069883,
        "lon": -12.403672312934615,
        "alt_km": 596.0198875569804,
        "timestamp": "2025-12-07T09:35:09.449081+00:00",
        "meta_object_name": "HODOYOSHI-4",
        "meta_object_id": "2014-033B",
        "meta_epoch": "2025-12-06T21:22:51.951648",
        "meta_mean_motion": 14.87449343,
        "meta_eccentricity": 0.00228438,
        "meta_inclination": 97.5416,
        "meta_ra_of_asc_node": 170.0633,
        "meta_arg_of_pericenter": 220.5471,
        "meta_mean_anomaly": 139.4045,
        "meta_ephemeris_type": 0,
        "meta_classification_type": "U",
        "meta_norad_cat_id": 40011,
        "meta_element_set_no": 999,
        "meta_rev_at_epoch": 62021,
        "meta_bstar": 0.00037128745,
        "meta_mean_motion_dot": 3.326e-05,
        "meta_mean_motion_ddot": 0,
        "tle_line1": "1 40011U 14033B   25340.89087907  .00003326  00000+0  37129-3 0  9997",
        "tle_line2": "2 40011  97.5416 170.0633 0022843 220.5471 139.4045 14.87449343620214"
      },
      "geometry": {
        "type": "Point",
        "coordinates": [
          -12.403672312934615,
          -21.231075088069883
        ]
      }
    },
    {
      "type": "Feature",
      "properties": {
        "norad_id": 40013,
        "name": "DEIMOS-2",
        "group": "resource",
        "lat": -71.65255797721996,
        "lon": 13.610262489985427,
        "alt_km": 596.7321770939589,
        "timestamp": "2025-12-07T09:35:09.449092+00:00",
        "meta_object_name": "DEIMOS-2",
        "meta_object_id": "2014-033D",
        "meta_epoch": "2025-12-06T19:35:11.734656",
        "meta_mean_motion": 14.9293486,
        "meta_eccentricity": 9.883e-05,
        "meta_inclination": 97.6071,
        "meta_ra_of_asc_node": 216.8114,
        "meta_arg_of_pericenter": 94.5291,
        "meta_mean_anomaly": 265.6042,
        "meta_ephemeris_type": 0,
        "meta_classification_type": "U",
        "meta_norad_cat_id": 40013,
        "meta_element_set_no": 999,
        "meta_rev_at_epoch": 60901,
        "meta_bstar": 0.00044661956,
        "meta_mean_motion_dot": 4.581e-05,
        "meta_mean_motion_ddot": 0,
        "tle_line1": "1 40013U 14033D   25340.81610804  .00004581  00000+0  44662-3 0  9993",
        "tle_line2": "2 40013  97.6071 216.8114 0000988  94.5291 265.6042 14.92934860609015"
      },
      "geometry": {
        "type": "Point",
        "coordinates": [
          13.610262489985427,
          -71.65255797721996
        ]
      }
    },
    {
      "type": "Feature",
      "properties": {
        "norad_id": 40015,
        "name": "HODOYOSHI-3",
        "group": "resource",
        "lat": 2.152959972539743,
        "lon": -32.24501846723764,
        "alt_km": 616.412149851456,
        "timestamp": "2025-12-07T09:35:09.449102+00:00",
        "meta_object_name": "HODOYOSHI-3",
        "meta_object_id": "2014-033F",
        "meta_epoch": "2025-12-06T21:27:46.890144",
        "meta_mean_motion": 14.84775356,
        "meta_eccentricity": 0.0031828,
        "meta_inclination": 97.6196,
        "meta_ra_of_asc_node": 146.9837,
        "meta_arg_of_pericenter": 267.9554,
        "meta_mean_anomaly": 91.8016,
        "meta_ephemeris_type": 0,
        "meta_classification_type": "U",
        "meta_norad_cat_id": 40015,
        "meta_element_set_no": 999,
        "meta_rev_at_epoch": 61908,
        "meta_bstar": 0.00035828186,
        "meta_mean_motion_dot": 3.014e-05,
        "meta_mean_motion_ddot": 0,
        "tle_line1": "1 40015U 14033F   25340.89429271  .00003014  00000+0  35828-3 0  9993",
        "tle_line2": "2 40015  97.6196 146.9837 0031828 267.9554  91.8016 14.84775356619087"
      },
      "geometry": {
        "type": "Point",
        "coordinates": [
          -32.24501846723764,
          2.152959972539743
        ]
      }
    },
    {
      "type": "Feature",
      "properties": {
        "norad_id": 40053,
        "name": "SPOT 7",
        "group": "resource",
        "lat": 2.416920293957498,
        "lon": 43.253767277602165,
        "alt_km": 693.5204020455303,
        "timestamp": "2025-12-07T09:35:09.449112+00:00",
        "meta_object_name": "SPOT 7",
        "meta_object_id": "2014-034A",
        "meta_epoch": "2025-12-06T22:04:00.502464",
        "meta_mean_motion": 14.60722399,
        "meta_eccentricity": 0.0001525,
        "meta_inclination": 98.0914,
        "meta_ra_of_asc_node": 43.1289,
        "meta_arg_of_pericenter": 94.7659,
        "meta_mean_anomaly": 265.3716,
        "meta_ephemeris_type": 0,
        "meta_classification_type": "U",
        "meta_norad_cat_id": 40053,
        "meta_element_set_no": 999,
        "meta_rev_at_epoch": 60906,
        "meta_bstar": 0.00022965098,
        "meta_mean_motion_dot": 1.074e-05,
        "meta_mean_motion_ddot": 0,
        "tle_line1": "1 40053U 14034A   25340.91945026  .00001074  00000+0  22965-3 0  9992",
        "tle_line2": "2 40053  98.0914  43.1289 0001525  94.7659 265.3716 14.60722399609069"
      },
      "geometry": {
        "type": "Point",
        "coordinates": [
          43.253767277602165,
          2.416920293957498
        ]
      }
    },
    {
      "type": "Feature",
      "properties": {
        "norad_id": 40072,
        "name": "SKYSAT-B",
        "group": "resource",
        "lat": 32.43772406283834,
        "lon": 110.18614008333259,
        "alt_km": 600.7503276386378,
        "timestamp": "2025-12-07T09:35:09.449123+00:00",
        "meta_object_name": "SKYSAT-B",
        "meta_object_id": "2014-037D",
        "meta_epoch": "2025-12-06T20:00:34.799040",
        "meta_mean_motion": 14.87293724,
        "meta_eccentricity": 0.00056593,
        "meta_inclination": 98.3602,
        "meta_ra_of_asc_node": 284.228,
        "meta_arg_of_pericenter": 168.1391,
        "meta_mean_anomaly": 191.9957,
        "meta_ephemeris_type": 0,
        "meta_classification_type": "U",
        "meta_norad_cat_id": 40072,
        "meta_element_set_no": 999,
        "meta_rev_at_epoch": 61736,
        "meta_bstar": 0.00035057257,
        "meta_mean_motion_dot": 3.103e-05,
        "meta_mean_motion_ddot": 0,
        "tle_line1": "1 40072U 14037D   25340.83373610  .00003103  00000+0  35057-3 0  9992",
        "tle_line2": "2 40072  98.3602 284.2280 0005659 168.1391 191.9957 14.87293724617364"
      },
      "geometry": {
        "type": "Point",
        "coordinates": [
          110.18614008333259,
          32.43772406283834
        ]
      }
    }
  ]
}